{
  "type": "FeatureCollection",
  "features": [
    {
      "type": "Feature",
      "properties": {
        "norad_id": 26766,
        "name": "INTELSAT 10 (IS-10)",
        "group": "intelsat",
        "lat": 7.524548909345824,
        "lon": 120.92460433072074,
        "alt_km": 36158.55125564567,
        "timestamp": "2025-12-26T20:30:45.600631+00:00",
        "meta_object_name": "INTELSAT 10 (IS-10)",
        "meta_object_id": "2001-019A",
        "meta_epoch": "2025-12-26T03:37:38.694720",
        "meta_mean_motion": 0.9907193,
        "meta_eccentricity": 0.00080244,
        "meta_inclination": 8.6594,
        "meta_ra_of_asc_node": 61.0206,
        "meta_arg_of_pericenter": 229.8344,
        "meta_mean_anomaly": 299.4437,
        "meta_ephemeris_type": 0,
        "meta_classification_type": "U",
        "meta_norad_cat_id": 26766,
        "meta_element_set_no": 999,
        "meta_rev_at_epoch": 4386,
        "meta_bstar": 0,
        "meta_mean_motion_dot": 4.6e-07,
        "meta_mean_motion_ddot": 0,
        "tle_line1": "1 26766U 01019A   25360.15114230  .00000046  00000+0  00000+0 0  9999",
        "tle_line2": "2 26766   8.6594  61.0206 0008024 229.8344 299.4437  0.99071930 43869"
      },
      "geometry": {
        "type": "Point",
        "coordinates": [
          120.92460433072074,
          7.524548909345824
        ]
      }
    },
    {
      "type": "Feature",
      "properties": {
        "norad_id": 26900,
        "name": "INTELSAT 902 (IS-902)",
        "group": "intelsat",
        "lat": -5.6172719752411036,
        "lon": -6.850290314925093,
        "alt_km": 35788.009083551544,
        "timestamp": "2025-12-26T20:30:45.600652+00:00",
        "meta_object_name": "INTELSAT 902 (IS-902)",
        "meta_object_id": "2001-039A",
        "meta_epoch": "2025-12-15T13:09:02.081664",
        "meta_mean_motion": 1.0027087,
        "meta_eccentricity": 0.00045028,
        "meta_inclination": 5.6536,
        "meta_ra_of_asc_node": 74.0372,
        "meta_arg_of_pericenter": 189.6359,
        "meta_mean_anomaly": 327.9329,
        "meta_ephemeris_type": 0,
        "meta_classification_type": "U",
        "meta_norad_cat_id": 26900,
        "meta_element_set_no": 999,
        "meta_rev_at_epoch": 8885,
        "meta_bstar": 0,
        "meta_mean_motion_dot": -2.65e-06,
        "meta_mean_motion_ddot": 0,
        "tle_line1": "1 26900U 01039A   25349.54794076 -.00000265  00000+0  00000+0 0  9997",
        "tle_line2": "2 26900   5.6536  74.0372 0004502 189.6359 327.9329  1.00270870 88858"
      },
      "geometry": {
        "type": "Point",
        "coordinates": [
          -6.850290314925093,
          -5.6172719752411036
        ]
      }
    },
    {
      "type": "Feature",
      "properties": {
        "norad_id": 27380,
        "name": "INTELSAT 904 (IS-904)",
        "group": "intelsat",
        "lat": -5.588174484875007,
        "lon": 11.982845086204438,
        "alt_km": 35781.3547240493,
        "timestamp": "2025-12-26T20:30:45.600665+00:00",
        "meta_object_name": "INTELSAT 904 (IS-904)",
        "meta_object_id": "2002-007A",
        "meta_epoch": "2025-12-26T11:10:18.842304",
        "meta_mean_motion": 1.00272441,
        "meta_eccentricity": 0.00020841,
        "meta_inclination": 6.4869,
        "meta_ra_of_asc_node": 71.2729,
        "meta_arg_of_pericenter": 247.9541,
        "meta_mean_anomaly": 272.0829,
        "meta_ephemeris_type": 0,
        "meta_classification_type": "U",
        "meta_norad_cat_id": 27380,
        "meta_element_set_no": 999,
        "meta_rev_at_epoch": 5003,
        "meta_bstar": 0,
        "meta_mean_motion_dot": -2.06e-06,
        "meta_mean_motion_ddot": 0,
        "tle_line1": "1 27380U 02007A   25360.46549586 -.00000206  00000+0  00000+0 0  9999",
        "tle_line2": "2 27380   6.4869  71.2729 0002084 247.9541 272.0829  1.00272441 50038"
      },
      "geometry": {
        "type": "Point",
        "coordinates": [
          11.982845086204438,
          -5.588174484875007
        ]
      }
    },
    {
      "type": "Feature",
      "properties": {
        "norad_id": 27426,
        "name": "DIRECTV 5 (TEMPO 1)",
        "group": "intelsat",
        "lat": -2.603968648406517,
        "lon": -66.9137575065066,
        "alt_km": 35772.131918188155,
        "timestamp": "2025-12-26T20:30:45.600677+00:00",
        "meta_object_name": "DIRECTV 5 (TEMPO 1)",
        "meta_object_id": "2002-023A",
        "meta_epoch": "2025-12-26T13:17:03.639840",
        "meta_mean_motion": 1.00271439,
        "meta_eccentricity": 0.00034457,
        "meta_inclination": 4.4354,
        "meta_ra_of_asc_node": 77.4895,
        "meta_arg_of_pericenter": 206.4307,
        "meta_mean_anomaly": 260.5228,
        "meta_ephemeris_type": 0,
        "meta_classification_type": "U",
        "meta_norad_cat_id": 27426,
        "meta_element_set_no": 999,
        "meta_rev_at_epoch": 8639,
        "meta_bstar": 0,
        "meta_mean_motion_dot": -3.7e-07,
        "meta_mean_motion_ddot": 0,
        "tle_line1": "1 27426U 02023A   25360.55351435 -.00000037  00000+0  00000+0 0  9994",
        "tle_line2": "2 27426   4.4354  77.4895 0003445 206.4307 260.5228  1.00271439 86399"
      },
      "geometry": {
        "type": "Point",
        "coordinates": [
          -66.9137575065066,
          -2.603968648406517
        ]
      }
    },
    {
      "type": "Feature",
      "properties": {
        "norad_id": 27438,
        "name": "INTELSAT 905 (IS-905)",
        "group": "intelsat",
        "lat": -1.5640983549802294,
        "lon": -93.97673767798244,
        "alt_km": 35774.15021528741,
        "timestamp": "2025-12-26T20:30:45.600689+00:00",
        "meta_object_name": "INTELSAT 905 (IS-905)",
        "meta_object_id": "2002-027A",
        "meta_epoch": "2025-12-23T05:41:27.377952",
        "meta_mean_motion": 1.00273243,
        "meta_eccentricity": 0.00027491,
        "meta_inclination": 6.3102,
        "meta_ra_of_asc_node": 71.9349,
        "meta_arg_of_pericenter": 206.5226,
        "meta_mean_anomaly": 121.7385,
        "meta_ephemeris_type": 0,
        "meta_classification_type": "U",
        "meta_norad_cat_id": 27438,
        "meta_element_set_no": 999,
        "meta_rev_at_epoch": 4959,
        "meta_bstar": 0,
        "meta_mean_motion_dot": 1.12e-06,
        "meta_mean_motion_ddot": 0,
        "tle_line1": "1 27438U 02027A   25357.23712243  .00000112  00000+0  00000+0 0  9993",
        "tle_line2": "2 27438   6.3102  71.9349 0002749 206.5226 121.7385  1.00273243 49592"
      },
      "geometry": {
        "type": "Point",
        "coordinates": [
          -93.97673767798244,
          -1.5640983549802294
        ]
      }
    },
    {
      "type": "Feature",
      "properties": {
        "norad_id": 27445,
        "name": "GALAXY 3C (G-3C)",
        "group": "intelsat",
        "lat": -2.469675897274,
        "lon": -51.61621545460595,
        "alt_km": 35789.769233944586,
        "timestamp": "2025-12-26T20:30:45.600701+00:00",
        "meta_object_name": "GALAXY 3C (G-3C)",
        "meta_object_id": "2002-030A",
        "meta_epoch": "2025-12-26T06:43:38.713152",
        "meta_mean_motion": 1.00271267,
        "meta_eccentricity": 9.697e-05,
        "meta_inclination": 3.2955,
        "meta_ra_of_asc_node": 80.3601,
        "meta_arg_of_pericenter": 86.5436,
        "meta_mean_anomaly": 294.1805,
        "meta_ephemeris_type": 0,
        "meta_classification_type": "U",
        "meta_norad_cat_id": 27445,
        "meta_element_set_no": 999,
        "meta_rev_at_epoch": 4476,
        "meta_bstar": 0,
        "meta_mean_motion_dot": -1.32e-06,
        "meta_mean_motion_ddot": 0,
        "tle_line1": "1 27445U 02030A   25360.28030918 -.00000132  00000+0  00000+0 0  9999",
        "tle_line2": "2 27445   3.2955  80.3601 0000969  86.5436 294.1805  1.00271267 44768"
      },
      "geometry": {
        "type": "Point",
        "coordinates": [
          -51.61621545460595,
          -2.469675897274
        ]
      }
    },
    {
      "type": "Feature",
      "properties": {
        "norad_id": 27513,
        "name": "INTELSAT 906 (IS-906)",
        "group": "intelsat",
        "lat": 2.884421436035158,
        "lon": 107.27956579786319,
        "alt_km": 35811.638467848075,
        "timestamp": "2025-12-26T20:30:45.600712+00:00",
        "meta_object_name": "INTELSAT 906 (IS-906)",
        "meta_object_id": "2002-041A",
        "meta_epoch": "2025-12-25T18:30:25.911072",
        "meta_mean_motion": 1.00270895,
        "meta_eccentricity": 0.00061771,
        "meta_inclination": 5.3631,
        "meta_ra_of_asc_node": 75.0767,
        "meta_arg_of_pericenter": 202.1174,
        "meta_mean_anomaly": 159.0704,
        "meta_ephemeris_type": 0,
        "meta_classification_type": "U",
        "meta_norad_cat_id": 27513,
        "meta_element_set_no": 999,
        "meta_rev_at_epoch": 8529,
        "meta_bstar": 0,
        "meta_mean_motion_dot": 3.3e-07,
        "meta_mean_motion_ddot": 0,
        "tle_line1": "1 27513U 02041A   25359.77113323  .00000033  00000+0  00000+0 0  9990",
        "tle_line2": "2 27513   5.3631  75.0767 0006177 202.1174 159.0704  1.00270895 85290"
      },
      "geometry": {
        "type": "Point",
        "coordinates": [
          107.27956579786319,
          2.884421436035158
        ]
      }
    }
  ]
}